OBJECT_NAME,OBJECT_ID,EPOCH,MEAN_MOTION,ECCENTRICITY,INCLINATION,RA_OF_ASC_NODE,ARG_OF_PERICENTER,MEAN_ANOMALY,EPHEMERIS_TYPE,CLASSIFICATION_TYPE,NORAD_CAT_ID,ELEMENT_SET_NO,REV_AT_EPOCH,BSTAR,MEAN_MOTION_DOT,MEAN_MOTION_DDOT
STARLINK-36623,2026-020AD,2026-07-12T21:11:14.640576,15.27586763,.0001209,43.0025,152.4592,271.7724,88.2990,0,U,67644,999,2526,.4484E-3,.121E-3,0
STARLINK-36619,2026-020AE,2026-07-12T08:36:06.791616,15.27587895,.0001421,43.0019,155.4034,279.4327,80.6364,0,U,67645,999,2518,.26942519E-3,.7161E-4,0
ALSAT-3B,2026-021A,2026-07-12T18:36:00.177120,15.23084837,.0013987,97.4585,267.3829,79.0810,281.1999,0,U,67646,999,2476,.15621E-3,.3619E-4,0
STARLINK-36719,2026-022A,2026-07-12T02:22:25.360032,15.33445771,.00011499,97.2838,225.5970,113.1859,246.9505,0,U,67648,999,2463,.29616203E-3,.9498E-4,0
STARLINK-36342,2026-022B,2026-07-12T13:18:24.437664,15.33445862,.0000258,97.2862,227.1148,53.9309,306.1958,0,U,67649,999,2477,.40086E-3,.12888E-3,0
STARLINK-36703,2026-022C,2026-07-12T15:41:08.384064,15.33447869,.0002116,97.2834,226.2200,181.3915,178.7322,0,U,67650,999,2472,.37065E-3,.11911E-3,0
STARLINK-36696,2026-022D,2026-07-12T12:56:42.914112,15.33434421,.00011341,97.2864,226.0685,131.5529,228.5811,0,U,67651,999,2470,.31363329E-3,.1006E-3,0
STARLINK-36699,2026-022E,2026-07-12T15:17:39.365088,15.33449519,.0001066,97.2842,226.2445,76.2997,283.8364,0,U,67652,999,2472,.3301E-3,.10598E-3,0
STARLINK-36694,2026-022F,2026-07-12T16:16:22.971360,15.33452544,.0000736,97.2839,226.1884,105.0145,255.1179,0,U,67653,999,2472,.42075E-3,.13536E-3,0
STARLINK-36620,2026-022G,2026-07-12T15:52:53.488416,15.33443324,.0000831,97.2833,226.2096,134.7606,225.3704,0,U,67654,999,2472,.20066E-3,.6408E-4,0
STARLINK-36720,2026-022H,2026-07-12T15:29:24.262944,15.33450120,.0001142,97.2846,226.2311,64.7303,295.4058,0,U,67655,999,2472,.35388E-3,.11369E-3,0
STARLINK-36688,2026-022J,2026-07-12T13:31:56.716896,15.33450826,.0001432,97.2851,226.1895,84.7942,275.3465,0,U,67656,999,2471,.3752E-3,.1206E-3,0
STARLINK-36706,2026-022K,2026-07-12T16:08:33.846144,15.33478095,.0001416,97.2832,226.1961,164.8398,195.2888,0,U,67657,999,2472,.53175E-3,.17149E-3,0
STARLINK-36701,2026-022L,2026-07-12T15:56:48.976800,15.33433258,.0001323,97.2834,226.2060,83.4370,276.7023,0,U,67658,999,2472,.34221E-3,.10985E-3,0
STARLINK-36642,2026-022M,2026-07-12T15:45:03.663360,15.33448490,.0000447,97.2824,226.2179,140.4001,219.7274,0,U,67659,999,2472,.36962E-3,.11878E-3,0
STARLINK-36673,2026-022N,2026-07-12T15:33:18.895104,15.33450079,.0000477,97.2839,226.2278,131.4847,228.6437,0,U,67660,999,2472,.44808E-3,.1442E-3,0
STARLINK-36674,2026-022P,2026-07-12T15:21:34.147584,15.33447412,.0000584,97.2839,226.2398,104.5011,255.6296,0,U,67661,999,2472,.27046E-3,.8667E-4,0
STARLINK-36700,2026-022Q,2026-07-12T00:52:22.257408,15.33452134,.00011095,97.2864,225.6835,111.5819,248.5542,0,U,67662,999,2463,.61705561E-3,.19903E-3,0
STARLINK-36675,2026-022R,2026-07-12T15:09:49.146048,15.33450782,.0000923,97.2830,226.2538,177.0438,183.0810,0,U,67663,999,2472,.34408E-3,.11051E-3,0
STARLINK-36404,2026-022S,2026-07-12T13:16:16.773024,15.33448201,.0000702,97.2845,226.0514,101.8181,258.3141,0,U,67664,999,2470,.35339E-3,.11352E-3,0
STARLINK-36399,2026-022T,2026-07-12T08:30:27.694080,15.33446576,.00009639,97.2844,225.8632,104.5392,255.5958,0,U,67665,999,2467,.32510938E-3,.10436E-3,0
STARLINK-36365,2026-022U,2026-07-12T13:04:31.788768,15.33461607,.0000361,97.2833,226.0661,170.0340,190.0910,0,U,67666,999,2470,.25671E-3,.8226E-4,0
STARLINK-36622,2026-022V,2026-07-12T16:00:43.245216,15.33448483,.0000324,97.2839,226.2031,176.3496,183.7749,0,U,67667,999,2472,.38456E-3,.12362E-3,0
STARLINK-36625,2026-022W,2026-07-12T15:48:58.484736,15.33447029,.0000611,97.2845,226.2140,195.4020,164.7204,0,U,67668,999,2472,.33143E-3,.1064E-3,0
STARLINK-36639,2026-022X,2026-07-12T15:37:13.958400,15.33445988,.0000868,97.2846,226.2250,79.3955,280.7385,0,U,67669,999,2472,.27012E-3,.8656E-4,0
STARLINK-36596,2026-022Y,2026-07-12T15:25:29.077824,15.33450733,.0000592,97.2846,226.2356,112.3771,247.7534,0,U,67670,999,2472,.39121E-3,.12578E-3,0
STARLINK-36297,2026-022Z,2026-07-12T00:56:17.217024,15.33449442,.00019777,97.2838,225.6792,123.3479,236.7953,0,U,67671,999,2463,.39724942E-3,.12774E-3,0
STARLINK-36616,2026-022AA,2026-07-12T15:13:44.198976,15.33449624,.0000847,97.2837,226.2493,138.6323,221.4984,0,U,67672,999,2472,.36507E-3,.11731E-3,0
COSMOS 2600,2026-023A,2026-07-11T22:42:07.165728,15.82798780,.0009204,96.7590,264.9895,214.1879,145.8800,0,U,67674,999,2470,.41927E-4,.8703E-4,0
COSMOS 2601,2026-023B,2026-07-12T16:53:45.917088,15.25707911,.0018047,96.6242,252.2827,53.0349,307.2541,0,U,67675,999,2390,.27589E-3,.7004E-4,0
