STARLINK-36623          
1 67644U 26020AD  26193.88280834  .00012100  00000+0  44840-3 0  9995
2 67644  43.0025 152.4592 0001209 271.7724  88.2990 15.27586763 25264
STARLINK-36619          
1 67645U 26020AE  26193.35841194  .00007161  00000+0  26943-3 0  9995
2 67645  43.0019 155.4034 0001421 279.4327  80.6364 15.27587895 25181
ALSAT-3B                
1 67646U 26021A   26193.77500205  .00003619  00000+0  15621-3 0  9993
2 67646  97.4585 267.3829 0013987  79.0810 281.1999 15.23084837 24768
STARLINK-36719          
1 67648U 26022A   26193.09890463  .00009498  00000+0  29616-3 0  9999
2 67648  97.2838 225.5970 0001149 113.1859 246.9505 15.33445771 24639
STARLINK-36342          
1 67649U 26022B   26193.55444951  .00012888  00000+0  40086-3 0  9999
2 67649  97.2862 227.1148 0000258  53.9309 306.1958 15.33445862 24770
STARLINK-36703          
1 67650U 26022C   26193.65356926  .00011911  00000+0  37065-3 0  9995
2 67650  97.2834 226.2200 0002116 181.3915 178.7322 15.33447869 24726
STARLINK-36696          
1 67651U 26022D   26193.53938558  .00010060  00000+0  31363-3 0  9999
2 67651  97.2864 226.0685 0001134 131.5529 228.5811 15.33434421 24707
STARLINK-36699          
1 67652U 26022E   26193.63726117  .00010598  00000+0  33010-3 0  9994
2 67652  97.2842 226.2445 0001066  76.2997 283.8364 15.33449519 24721
STARLINK-36694          
1 67653U 26022F   26193.67804365  .00013536  00000+0  42075-3 0  9997
2 67653  97.2839 226.1884 0000736 105.0145 255.1179 15.33452544 24721
STARLINK-36620          
1 67654U 26022G   26193.66173019  .00006408  00000+0  20066-3 0  9998
2 67654  97.2833 226.2096 0000831 134.7606 225.3704 15.33443324 24728
STARLINK-36720          
1 67655U 26022H   26193.64541971  .00011369  00000+0  35388-3 0  9998
2 67655  97.2846 226.2311 0001142  64.7303 295.4058 15.33450120 24727
STARLINK-36688          
1 67656U 26022J   26193.56385089  .00012060  00000+0  37520-3 0  9995
2 67656  97.2851 226.1895 0001432  84.7942 275.3465 15.33450826 24714
STARLINK-36706          
1 67657U 26022K   26193.67261396  .00017149  00000+0  53175-3 0  9999
2 67657  97.2832 226.1961 0001416 164.8398 195.2888 15.33478095 24723
STARLINK-36701          
1 67658U 26022L   26193.66445575  .00010985  00000+0  34221-3 0  9994
2 67658  97.2834 226.2060 0001323  83.4370 276.7023 15.33433258 24728
STARLINK-36642          
1 67659U 26022M   26193.65629240  .00011878  00000+0  36962-3 0  9993
2 67659  97.2824 226.2179 0000447 140.4001 219.7274 15.33448490 24729
STARLINK-36673          
1 67660U 26022N   26193.64813536  .00014420  00000+0  44808-3 0  9991
2 67660  97.2839 226.2278 0000477 131.4847 228.6437 15.33450079 24724
STARLINK-36674          
1 67661U 26022P   26193.63997856  .00008667  00000+0  27046-3 0  9990
2 67661  97.2839 226.2398 0000584 104.5011 255.6296 15.33447412 24721
STARLINK-36700          
1 67662U 26022Q   26193.03636872  .00019903  00000+0  61706-3 0  9999
2 67662  97.2864 225.6835 0001109 111.5819 248.5542 15.33452134 24639
STARLINK-36675          
1 67663U 26022R   26193.63181882  .00011051  00000+0  34408-3 0  9997
2 67663  97.2830 226.2538 0000923 177.0438 183.0810 15.33450782 24725
STARLINK-36404          
1 67664U 26022S   26193.55297191  .00011352  00000+0  35339-3 0  9998
2 67664  97.2845 226.0514 0000702 101.8181 258.3141 15.33448201 24703
STARLINK-36399          
1 67665U 26022T   26193.35448720  .00010436  00000+0  32511-3 0  9994
2 67665  97.2844 225.8632 0000963 104.5392 255.5958 15.33446576 24678
STARLINK-36365          
1 67666U 26022U   26193.54481237  .00008226  00000+0  25671-3 0  9999
2 67666  97.2833 226.0661 0000361 170.0340 190.0910 15.33461607 24702
STARLINK-36622          
1 67667U 26022V   26193.66716719  .00012362  00000+0  38456-3 0  9990
2 67667  97.2839 226.2031 0000324 176.3496 183.7749 15.33448483 24720
STARLINK-36625          
1 67668U 26022W   26193.65901024  .00010640  00000+0  33143-3 0  9990
2 67668  97.2845 226.2140 0000611 195.4020 164.7204 15.33447029 24723
STARLINK-36639          
1 67669U 26022X   26193.65085600  .00008656  00000+0  27012-3 0  9996
2 67669  97.2846 226.2250 0000868  79.3955 280.7385 15.33445988 24729
STARLINK-36596          
1 67670U 26022Y   26193.64269766  .00012578  00000+0  39121-3 0  9996
2 67670  97.2846 226.2356 0000592 112.3771 247.7534 15.33450733 24729
STARLINK-36297          
1 67671U 26022Z   26193.03908816  .00012774  00000+0  39725-3 0  9994
2 67671  97.2838 225.6792 0001977 123.3479 236.7953 15.33449442 24631
STARLINK-36616          
1 67672U 26022AA  26193.63453934  .00011731  00000+0  36507-3 0  9994
2 67672  97.2837 226.2493 0000847 138.6323 221.4984 15.33449624 24725
COSMOS 2600             
1 67674U 26023A   26192.94591627  .00008703  00000+0  41927-4 0  9990
2 67674  96.7590 264.9895 0009204 214.1879 145.8800 15.82798780 24702
COSMOS 2601             
1 67675U 26023B   26193.70400367  .00007004  00000+0  27589-3 0  9996
2 67675  96.6242 252.2827 0018047  53.0349 307.2541 15.25707911 23908
